OBJECT_NAME,OBJECT_ID,EPOCH,MEAN_MOTION,ECCENTRICITY,INCLINATION,RA_OF_ASC_NODE,ARG_OF_PERICENTER,MEAN_ANOMALY,EPHEMERIS_TYPE,CLASSIFICATION_TYPE,NORAD_CAT_ID,ELEMENT_SET_NO,REV_AT_EPOCH,BSTAR,MEAN_MOTION_DOT,MEAN_MOTION_DDOT
LEMUR-2-ALISIA,2025-009DB,2026-06-15T22:29:24.286560,15.02755239,.00018675,97.6960,249.1154,191.0322,169.0862,0,U,62706,999,9997,.4533333E-3,.6001E-4,0
LEMUR-2-ROUNDTRIPPER,2025-009DG,2026-06-15T23:06:06.233760,15.03776210,.00052301,97.7259,249.6432,134.2460,225.9196,0,U,62711,999,7744,.55412962E-3,.7554E-4,0
LEMUR-2-MYNAMEISJEFF,2025-009DH,2026-06-15T23:03:49.234464,15.03783260,.000345,97.7306,250.0222,155.3078,204.8313,0,U,62712,999,7744,.51704851E-3,.7044E-4,0
LEMUR-2-LEIA-PHILIP,2025-052AN,2026-06-15T22:24:25.158528,14.97317560,.00024226,97.6843,58.9058,213.4361,146.6708,0,U,63246,999,6848,.91814939E-4,.1007E-4,0
LEMUR-2-LIA-MARTIN,2025-052AQ,2026-06-15T22:32:16.857600,14.97797495,.00028331,97.6902,59.3847,157.4005,202.7343,0,U,63248,999,6849,.27692518E-3,.3195E-4,0
LEMUR-2-DELOITTE-1,2025-052BB,2026-06-15T23:34:15.484224,14.97595755,.00033364,97.6922,59.7554,99.6712,260.4887,0,U,63259,999,6851,.34069465E-3,.3924E-4,0
LEMUR-2-EMERSONROSE,2025-052BD,2026-06-15T23:00:12.710880,14.99072739,.00017964,97.6890,60.2889,66.9434,293.1978,0,U,63261,999,6855,.26010428E-3,.3099E-4,0
LEMUR-2-MARACHE-FRAN,2025-052BE,2026-06-15T22:25:53.290848,15.00092252,.00054909,97.6948,60.5790,27.8079,332.3438,0,U,63262,999,6857,.3710911E-3,.4568E-4,0
LEMUR-2-THEFALCONER,2025-052BG,2026-06-15T22:35:45.729600,14.97383239,.0002828,97.6872,59.3380,36.9805,323.1612,0,U,63264,999,6850,.21087847E-3,.2393E-4,0
LEMUR-2-UNTITLED-SC,2025-061A,2026-06-15T21:34:01.394400,15.13469219,.00169459,97.5631,142.2696,269.5865,90.3424,0,U,63351,999,6739,.20634844E-3,.3636E-4,0
LEMUR-2-ESPERANZA,2025-061B,2026-06-15T22:36:24.918912,15.13564284,.00165372,97.5641,142.4059,268.6353,91.2984,0,U,63352,999,6740,.24135833E-3,.4275E-4,0
LEMUR-2-KREMPEL-BRO2,2025-061C,2026-06-15T21:40:36.117984,15.13999259,.0017437,97.5686,142.8991,260.4360,99.4901,0,U,63353,999,6741,.19882099E-3,.3554E-4,0
LEMUR-2-THERMORAPTOR,2025-061D,2026-06-15T21:14:52.741824,15.14078359,.00172002,97.5691,142.9567,259.3713,100.5582,0,U,63354,999,6741,.23555205E-3,.4233E-4,0
LEMUR-2-NEUROSPICY,2025-061E,2026-06-15T22:09:23.482944,15.14195116,.00149634,97.5619,142.6217,263.0863,96.8666,0,U,63355,999,6742,.20877921E-3,.3753E-4,0
LEMUR-2-TILLINFINITY,2025-061F,2026-06-15T21:25:44.944320,15.14779522,.00163301,97.5603,142.8810,250.0863,109.8610,0,U,63356,999,6744,.22655019E-3,.4149E-4,0
LEMUR-2-KREMPEL-BRO1,2025-061G,2026-06-15T22:22:26.668704,15.14586530,.00169326,97.5606,142.8367,251.2424,108.6971,0,U,63357,999,6744,.22011213E-3,.4008E-4,0
LEMUR-2-LANGER2SPACE,2025-061H,2026-06-15T21:25:05.730816,15.14281987,.00149271,97.5609,142.6114,261.4113,98.5428,0,U,63358,999,6742,.22993815E-3,.4151E-4,0
LEMUR-2-BALTO,2025-052BH,2026-06-15T17:15:39.265344,15.00073642,.00069031,97.6898,60.3451,61.6947,298.4972,0,U,63395,999,6854,.42418314E-3,.5229E-4,0
LEMUR-2-KRISH,2025-135AK,2026-06-15T19:17:18.327840,14.96197501,.00017526,97.7749,281.6890,101.2292,258.9127,0,U,64561,999,5371,.44539367E-3,.4964E-4,0
LEMUR-2-HUBBLE-4,2025-135AP,2026-06-15T20:42:56.621376,14.93194313,.00010279,97.7698,280.7852,316.8412,43.2727,0,U,64565,999,5367,.15538397E-3,.1566E-4,0
LEMUR-2-SEJONG-2,2025-135BL,2026-06-15T23:13:39.516672,14.96688807,.00039659,97.7691,281.9969,344.1586,15.9510,0,U,64586,999,5376,.2947352E-3,.3307E-4,0
LEMUR-2-HUBBLE-5,2025-135BT,2026-06-15T21:14:25.975104,14.94133121,.0005206,97.7717,281.4386,358.8725,1.2482,0,U,64840,999,5371,.12116766E-3,.1239E-4,0
LEMUR-2-KARENDARRELL,2025-135BU,2026-06-15T18:49:06.518208,15.00093871,.00095709,97.7683,282.9940,207.5237,152.5481,0,U,64841,999,5380,.52639265E-3,.651E-4,0
LEMUR-2-LUCILLE-ROSE,2025-135BV,2026-06-15T13:23:09.686400,15.00138198,.00110471,97.7772,282.7858,288.9914,71.0112,0,U,65403,999,4839,.4556499E-3,.5634E-4,0
LEMUR-2-AFFIE-WAUWIE,2025-248C,2026-06-15T03:48:26.154720,15.27089116,.00076165,45.3893,125.9769,70.2843,289.8867,0,U,66295,999,3428,.5463527E-3,.14524E-3,0
LEMUR-2-DEANANDMAEVE,2025-276N,2026-06-15T22:22:02.068032,15.19720965,.00058375,97.4216,240.4282,18.8956,341.2495,0,U,66678,999,3022,.26147445E-3,.5521E-4,0
LEMUR-2-STAS-GORBUK,2025-276W,2026-06-15T16:23:09.487680,15.19368256,.00052049,97.4251,240.2382,20.1590,339.9849,0,U,66686,999,3018,.256717E-3,.5363E-4,0
LEMUR-2-TEODOR,2025-276DG,2026-06-15T22:21:06.542208,15.21039056,.00021155,97.4155,240.7172,117.4343,242.7108,0,U,66768,999,3025,.22015521E-3,.4819E-4,0
LEMUR-2-LAILA,2025-276DQ,2026-06-15T21:43:48.585216,15.21259899,.00021531,97.4178,240.8117,137.4626,222.6777,0,U,66776,999,3025,.22462549E-3,.495E-4,0
