LEMUR-2-ALISIA          
1 62706U 25009DB  26166.93708665  .00006001  00000+0  45333-3 0  9999
2 62706  97.6960 249.1154 0001867 191.0322 169.0862 15.02755239 99971
LEMUR-2-ROUNDTRIPPER    
1 62711U 25009DG  26166.96257215  .00007554  00000+0  55413-3 0  9992
2 62711  97.7259 249.6432 0005230 134.2460 225.9196 15.03776210 77446
LEMUR-2-MYNAMEISJEFF    
1 62712U 25009DH  26166.96098651  .00007044  00000+0  51705-3 0  9994
2 62712  97.7306 250.0222 0003450 155.3078 204.8313 15.03783260 77444
LEMUR-2-LEIA-PHILIP     
1 63246U 25052AN  26166.93362452  .00001007  00000+0  91815-4 0  9995
2 63246  97.6843  58.9058 0002422 213.4361 146.6708 14.97317560 68486
LEMUR-2-LIA-MARTIN      
1 63248U 25052AQ  26166.93908400  .00003195  00000+0  27693-3 0  9998
2 63248  97.6902  59.3847 0002833 157.4005 202.7343 14.97797495 68492
LEMUR-2-DELOITTE-1      
1 63259U 25052BB  26166.98212366  .00003924  00000+0  34069-3 0  9999
2 63259  97.6922  59.7554 0003336  99.6712 260.4887 14.97595755 68518
LEMUR-2-EMERSONROSE     
1 63261U 25052BD  26166.95848045  .00003099  00000+0  26010-3 0  9998
2 63261  97.6890  60.2889 0001796  66.9434 293.1978 14.99072739 68551
LEMUR-2-MARACHE-FRAN    
1 63262U 25052BE  26166.93464457  .00004568  00000+0  37109-3 0  9991
2 63262  97.6948  60.5790 0005490  27.8079 332.3438 15.00092252 68570
LEMUR-2-THEFALCONER     
1 63264U 25052BG  26166.94150150  .00002393  00000+0  21088-3 0  9999
2 63264  97.6872  59.3380 0002828  36.9805 323.1612 14.97383239 68507
LEMUR-2-UNTITLED-SC     
1 63351U 25061A   26166.89862725  .00003636  00000+0  20635-3 0  9996
2 63351  97.5631 142.2696 0016945 269.5865  90.3424 15.13469219 67395
LEMUR-2-ESPERANZA       
1 63352U 25061B   26166.94195508  .00004275  00000+0  24136-3 0  9991
2 63352  97.5641 142.4059 0016537 268.6353  91.2984 15.13564284 67402
LEMUR-2-KREMPEL-BRO2    
1 63353U 25061C   26166.90319581  .00003554  00000+0  19882-3 0  9998
2 63353  97.5686 142.8991 0017437 260.4360  99.4901 15.13999259 67413
LEMUR-2-THERMORAPTOR    
1 63354U 25061D   26166.88533266  .00004233  00000+0  23555-3 0  9991
2 63354  97.5691 142.9567 0017200 259.3713 100.5582 15.14078359 67416
LEMUR-2-NEUROSPICY      
1 63355U 25061E   26166.92318846  .00003753  00000+0  20878-3 0  9993
2 63355  97.5619 142.6217 0014963 263.0863  96.8666 15.14195116 67429
LEMUR-2-TILLINFINITY    
1 63356U 25061F   26166.89288130  .00004149  00000+0  22655-3 0  9997
2 63356  97.5603 142.8810 0016330 250.0863 109.8610 15.14779522 67445
LEMUR-2-KREMPEL-BRO1    
1 63357U 25061G   26166.93225311  .00004008  00000+0  22011-3 0  9995
2 63357  97.5606 142.8367 0016932 251.2424 108.6971 15.14586530 67442
LEMUR-2-LANGER2SPACE    
1 63358U 25061H   26166.89242744  .00004151  00000+0  22994-3 0  9999
2 63358  97.5609 142.6114 0014927 261.4113  98.5428 15.14281987 67424
LEMUR-2-BALTO           
1 63395U 25052BH  26166.71920446  .00005229  00000+0  42418-3 0  9993
2 63395  97.6898  60.3451 0006903  61.6947 298.4972 15.00073642 68547
LEMUR-2-KRISH           
1 64561U 25135AK  26166.80368435  .00004964  00000+0  44539-3 0  9996
2 64561  97.7749 281.6890 0001752 101.2292 258.9127 14.96197501 53716
LEMUR-2-HUBBLE-4        
1 64565U 25135AP  26166.86315534  .00001566  00000+0  15538-3 0  9990
2 64565  97.7698 280.7852 0001027 316.8412  43.2727 14.93194313 53675
LEMUR-2-SEJONG-2        
1 64586U 25135BL  26166.96781848  .00003307  00000+0  29474-3 0  9998
2 64586  97.7691 281.9969 0003965 344.1586  15.9510 14.96688807 53767
LEMUR-2-HUBBLE-5        
1 64840U 25135BT  26166.88502286  .00001239  00000+0  12117-3 0  9997
2 64840  97.7717 281.4386 0005206 358.8725   1.2482 14.94133121 53717
LEMUR-2-KARENDARRELL    
1 64841U 25135BU  26166.78410322  .00006510  00000+0  52639-3 0  9996
2 64841  97.7683 282.9940 0009570 207.5237 152.5481 15.00093871 53802
LEMUR-2-LUCILLE-ROSE    
1 65403U 25135BV  26166.55775100  .00005634  00000+0  45565-3 0  9990
2 65403  97.7772 282.7858 0011047 288.9914  71.0112 15.00138198 48395
LEMUR-2-AFFIE-WAUWIE    
1 66295U 25248C   26166.15863605  .00014524  00000+0  54635-3 0  9995
2 66295  45.3893 125.9769 0007616  70.2843 289.8867 15.27089116 34280
LEMUR-2-DEANANDMAEVE    
1 66678U 25276N   26166.93196838  .00005521  00000+0  26147-3 0  9998
2 66678  97.4216 240.4282 0005837  18.8956 341.2495 15.19720965 30226
LEMUR-2-STAS-GORBUK     
1 66686U 25276W   26166.68274870  .00005363  00000+0  25672-3 0  9998
2 66686  97.4251 240.2382 0005204  20.1590 339.9849 15.19368256 30184
LEMUR-2-TEODOR          
1 66768U 25276DG  26166.93132572  .00004819  00000+0  22016-3 0  9993
2 66768  97.4155 240.7172 0002115 117.4343 242.7108 15.21039056 30257
LEMUR-2-LAILA           
1 66776U 25276DQ  26166.90542344  .00004950  00000+0  22463-3 0  9993
2 66776  97.4178 240.8117 0002153 137.4626 222.6777 15.21259899 30257
